<?xml version="1.0" encoding="UTF-8"?>
<ndm xmlns:xsi="http://www.w3.org/2001/XMLSchema-instance" xsi:noNamespaceSchemaLocation="https://sanaregistry.org/r/ndmxml_unqualified/ndmxml-2.0.0-master-2.0.xsd">
<omm id="CCSDS_OMM_VERS" version="2.0">
<header><CREATION_DATE/><ORIGINATOR/></header><body><segment><metadata><OBJECT_NAME>ONEWEB-0037</OBJECT_NAME><OBJECT_ID>2020-020S</OBJECT_ID><CENTER_NAME>EARTH</CENTER_NAME><REF_FRAME>TEME</REF_FRAME><TIME_SYSTEM>UTC</TIME_SYSTEM><MEAN_ELEMENT_THEORY>SGP4</MEAN_ELEMENT_THEORY></metadata><data><meanElements><EPOCH>2025-10-01T03:53:50.009568</EPOCH><MEAN_MOTION>13.11416361</MEAN_MOTION><ECCENTRICITY>.00017588</ECCENTRICITY><INCLINATION>87.8810</INCLINATION><RA_OF_ASC_NODE>72.6041</RA_OF_ASC_NODE><ARG_OF_PERICENTER>91.0083</ARG_OF_PERICENTER><MEAN_ANOMALY>269.1246</MEAN_ANOMALY></meanElements><tleParameters><EPHEMERIS_TYPE>0</EPHEMERIS_TYPE><CLASSIFICATION_TYPE>U</CLASSIFICATION_TYPE><NORAD_CAT_ID>45440</NORAD_CAT_ID><ELEMENT_SET_NO>999</ELEMENT_SET_NO><REV_AT_EPOCH>26874</REV_AT_EPOCH><BSTAR>-.18347901E-2</BSTAR><MEAN_MOTION_DOT>-.638E-5</MEAN_MOTION_DOT><MEAN_MOTION_DDOT>0</MEAN_MOTION_DDOT></tleParameters></data></segment></body></omm>
<omm id="CCSDS_OMM_VERS" version="2.0">
<header><CREATION_DATE/><ORIGINATOR/></header><body><segment><metadata><OBJECT_NAME>ONEWEB-0042</OBJECT_NAME><OBJECT_ID>2020-020T</OBJECT_ID><CENTER_NAME>EARTH</CENTER_NAME><REF_FRAME>TEME</REF_FRAME><TIME_SYSTEM>UTC</TIME_SYSTEM><MEAN_ELEMENT_THEORY>SGP4</MEAN_ELEMENT_THEORY></metadata><data><meanElements><EPOCH>2025-10-01T04:07:03.708480</EPOCH><MEAN_MOTION>13.11416681</MEAN_MOTION><ECCENTRICITY>.00016991</ECCENTRICITY><INCLINATION>87.8797</INCLINATION><RA_OF_ASC_NODE>72.6402</RA_OF_ASC_NODE><ARG_OF_PERICENTER>88.7394</ARG_OF_PERICENTER><MEAN_ANOMALY>271.3928</MEAN_ANOMALY></meanElements><tleParameters><EPHEMERIS_TYPE>0</EPHEMERIS_TYPE><CLASSIFICATION_TYPE>U</CLASSIFICATION_TYPE><NORAD_CAT_ID>45441</NORAD_CAT_ID><ELEMENT_SET_NO>999</ELEMENT_SET_NO><REV_AT_EPOCH>26871</REV_AT_EPOCH><BSTAR>-.14081006E-2</BSTAR><MEAN_MOTION_DOT>-.486E-5</MEAN_MOTION_DOT><MEAN_MOTION_DDOT>0</MEAN_MOTION_DDOT></tleParameters></data></segment></body></omm>
<omm id="CCSDS_OMM_VERS" version="2.0">
<header><CREATION_DATE/><ORIGINATOR/></header><body><segment><metadata><OBJECT_NAME>ONEWEB-0098</OBJECT_NAME><OBJECT_ID>2020-020U</OBJECT_ID><CENTER_NAME>EARTH</CENTER_NAME><REF_FRAME>TEME</REF_FRAME><TIME_SYSTEM>UTC</TIME_SYSTEM><MEAN_ELEMENT_THEORY>SGP4</MEAN_ELEMENT_THEORY></metadata><data><meanElements><EPOCH>2025-10-01T04:01:09.388128</EPOCH><MEAN_MOTION>13.11416565</MEAN_MOTION><ECCENTRICITY>.00016528</ECCENTRICITY><INCLINATION>87.8797</INCLINATION><RA_OF_ASC_NODE>72.6515</RA_OF_ASC_NODE><ARG_OF_PERICENTER>95.1941</ARG_OF_PERICENTER><MEAN_ANOMALY>264.9375</MEAN_ANOMALY></meanElements><tleParameters><EPHEMERIS_TYPE>0</EPHEMERIS_TYPE><CLASSIFICATION_TYPE>U</CLASSIFICATION_TYPE><NORAD_CAT_ID>45442</NORAD_CAT_ID><ELEMENT_SET_NO>999</ELEMENT_SET_NO><REV_AT_EPOCH>26869</REV_AT_EPOCH><BSTAR>-.19636335E-2</BSTAR><MEAN_MOTION_DOT>-.683E-5</MEAN_MOTION_DOT><MEAN_MOTION_DDOT>0</MEAN_MOTION_DDOT></tleParameters></data></segment></body></omm>
<omm id="CCSDS_OMM_VERS" version="2.0">
<header><CREATION_DATE/><ORIGINATOR/></header><body><segment><metadata><OBJECT_NAME>ONEWEB-0055</OBJECT_NAME><OBJECT_ID>2020-020V</OBJECT_ID><CENTER_NAME>EARTH</CENTER_NAME><REF_FRAME>TEME</REF_FRAME><TIME_SYSTEM>UTC</TIME_SYSTEM><MEAN_ELEMENT_THEORY>SGP4</MEAN_ELEMENT_THEORY></metadata><data><meanElements><EPOCH>2025-09-30T23:57:00.428832</EPOCH><MEAN_MOTION>13.11414243</MEAN_MOTION><ECCENTRICITY>.00016717</ECCENTRICITY><INCLINATION>87.8796</INCLINATION><RA_OF_ASC_NODE>72.6871</RA_OF_ASC_NODE><ARG_OF_PERICENTER>96.1976</ARG_OF_PERICENTER><MEAN_ANOMALY>263.9342</MEAN_ANOMALY></meanElements><tleParameters><EPHEMERIS_TYPE>0</EPHEMERIS_TYPE><CLASSIFICATION_TYPE>U</CLASSIFICATION_TYPE><NORAD_CAT_ID>45443</NORAD_CAT_ID><ELEMENT_SET_NO>999</ELEMENT_SET_NO><REV_AT_EPOCH>26864</REV_AT_EPOCH><BSTAR>-.70435001E-3</BSTAR><MEAN_MOTION_DOT>-.237E-5</MEAN_MOTION_DOT><MEAN_MOTION_DDOT>0</MEAN_MOTION_DDOT></tleParameters></data></segment></body></omm>
<omm id="CCSDS_OMM_VERS" version="2.0">
<header><CREATION_DATE/><ORIGINATOR/></header><body><segment><metadata><OBJECT_NAME>ONEWEB-0093</OBJECT_NAME><OBJECT_ID>2020-020W</OBJECT_ID><CENTER_NAME>EARTH</CENTER_NAME><REF_FRAME>TEME</REF_FRAME><TIME_SYSTEM>UTC</TIME_SYSTEM><MEAN_ELEMENT_THEORY>SGP4</MEAN_ELEMENT_THEORY></metadata><data><meanElements><EPOCH>2025-10-01T04:51:25.815168</EPOCH><MEAN_MOTION>13.11415088</MEAN_MOTION><ECCENTRICITY>.00015445</ECCENTRICITY><INCLINATION>87.8801</INCLINATION><RA_OF_ASC_NODE>72.6315</RA_OF_ASC_NODE><ARG_OF_PERICENTER>77.2212</ARG_OF_PERICENTER><MEAN_ANOMALY>282.9088</MEAN_ANOMALY></meanElements><tleParameters><EPHEMERIS_TYPE>0</EPHEMERIS_TYPE><CLASSIFICATION_TYPE>U</CLASSIFICATION_TYPE><NORAD_CAT_ID>45444</NORAD_CAT_ID><ELEMENT_SET_NO>999</ELEMENT_SET_NO><REV_AT_EPOCH>26873</REV_AT_EPOCH><BSTAR>.10108995E-2</BSTAR><MEAN_MOTION_DOT>.371E-5</MEAN_MOTION_DOT><MEAN_MOTION_DDOT>0</MEAN_MOTION_DDOT></tleParameters></data></segment></body></omm>
<omm id="CCSDS_OMM_VERS" version="2.0">
<header><CREATION_DATE/><ORIGINATOR/></header><body><segment><metadata><OBJECT_NAME>ONEWEB-0029</OBJECT_NAME><OBJECT_ID>2020-020X</OBJECT_ID><CENTER_NAME>EARTH</CENTER_NAME><REF_FRAME>TEME</REF_FRAME><TIME_SYSTEM>UTC</TIME_SYSTEM><MEAN_ELEMENT_THEORY>SGP4</MEAN_ELEMENT_THEORY></metadata><data><meanElements><EPOCH>2025-09-30T23:44:48.573312</EPOCH><MEAN_MOTION>13.11414897</MEAN_MOTION><ECCENTRICITY>.00015367</ECCENTRICITY><INCLINATION>87.8801</INCLINATION><RA_OF_ASC_NODE>72.6867</RA_OF_ASC_NODE><ARG_OF_PERICENTER>90.2954</ARG_OF_PERICENTER><MEAN_ANOMALY>269.8350</MEAN_ANOMALY></meanElements><tleParameters><EPHEMERIS_TYPE>0</EPHEMERIS_TYPE><CLASSIFICATION_TYPE>U</CLASSIFICATION_TYPE><NORAD_CAT_ID>45445</NORAD_CAT_ID><ELEMENT_SET_NO>999</ELEMENT_SET_NO><REV_AT_EPOCH>26868</REV_AT_EPOCH><BSTAR>.39428414E-3</BSTAR><MEAN_MOTION_DOT>.152E-5</MEAN_MOTION_DOT><MEAN_MOTION_DDOT>0</MEAN_MOTION_DDOT></tleParameters></data></segment></body></omm>
<omm id="CCSDS_OMM_VERS" version="2.0">
<header><CREATION_DATE/><ORIGINATOR/></header><body><segment><metadata><OBJECT_NAME>ONEWEB-0068</OBJECT_NAME><OBJECT_ID>2020-020Y</OBJECT_ID><CENTER_NAME>EARTH</CENTER_NAME><REF_FRAME>TEME</REF_FRAME><TIME_SYSTEM>UTC</TIME_SYSTEM><MEAN_ELEMENT_THEORY>SGP4</MEAN_ELEMENT_THEORY></metadata><data><meanElements><EPOCH>2025-10-01T04:51:02.185632</EPOCH><MEAN_MOTION>13.11415842</MEAN_MOTION><ECCENTRICITY>.0001514</ECCENTRICITY><INCLINATION>87.8800</INCLINATION><RA_OF_ASC_NODE>72.6327</RA_OF_ASC_NODE><ARG_OF_PERICENTER>88.9322</ARG_OF_PERICENTER><MEAN_ANOMALY>271.1979</MEAN_ANOMALY></meanElements><tleParameters><EPHEMERIS_TYPE>0</EPHEMERIS_TYPE><CLASSIFICATION_TYPE>U</CLASSIFICATION_TYPE><NORAD_CAT_ID>45446</NORAD_CAT_ID><ELEMENT_SET_NO>999</ELEMENT_SET_NO><REV_AT_EPOCH>26865</REV_AT_EPOCH><BSTAR>.13599489E-2</BSTAR><MEAN_MOTION_DOT>.495E-5</MEAN_MOTION_DOT><MEAN_MOTION_DDOT>0</MEAN_MOTION_DDOT></tleParameters></data></segment></body></omm>
<omm id="CCSDS_OMM_VERS" version="2.0">
<header><CREATION_DATE/><ORIGINATOR/></header><body><segment><metadata><OBJECT_NAME>ONEWEB-0046</OBJECT_NAME><OBJECT_ID>2020-020Z</OBJECT_ID><CENTER_NAME>EARTH</CENTER_NAME><REF_FRAME>TEME</REF_FRAME><TIME_SYSTEM>UTC</TIME_SYSTEM><MEAN_ELEMENT_THEORY>SGP4</MEAN_ELEMENT_THEORY></metadata><data><meanElements><EPOCH>2025-09-30T21:19:33.370752</EPOCH><MEAN_MOTION>13.11417493</MEAN_MOTION><ECCENTRICITY>.00017236</ECCENTRICITY><INCLINATION>87.8797</INCLINATION><RA_OF_ASC_NODE>72.7046</RA_OF_ASC_NODE><ARG_OF_PERICENTER>83.5728</ARG_OF_PERICENTER><MEAN_ANOMALY>276.5596</MEAN_ANOMALY></meanElements><tleParameters><EPHEMERIS_TYPE>0</EPHEMERIS_TYPE><CLASSIFICATION_TYPE>U</CLASSIFICATION_TYPE><NORAD_CAT_ID>45447</NORAD_CAT_ID><ELEMENT_SET_NO>999</ELEMENT_SET_NO><REV_AT_EPOCH>26862</REV_AT_EPOCH><BSTAR>.15721872E-2</BSTAR><MEAN_MOTION_DOT>.57E-5</MEAN_MOTION_DOT><MEAN_MOTION_DDOT>0</MEAN_MOTION_DDOT></tleParameters></data></segment></body></omm>
<omm id="CCSDS_OMM_VERS" version="2.0">
<header><CREATION_DATE/><ORIGINATOR/></header><body><segment><metadata><OBJECT_NAME>ONEWEB-0063</OBJECT_NAME><OBJECT_ID>2020-020AA</OBJECT_ID><CENTER_NAME>EARTH</CENTER_NAME><REF_FRAME>TEME</REF_FRAME><TIME_SYSTEM>UTC</TIME_SYSTEM><MEAN_ELEMENT_THEORY>SGP4</MEAN_ELEMENT_THEORY></metadata><data><meanElements><EPOCH>2025-09-30T23:50:54.446208</EPOCH><MEAN_MOTION>13.11413699</MEAN_MOTION><ECCENTRICITY>.00018682</ECCENTRICITY><INCLINATION>87.8796</INCLINATION><RA_OF_ASC_NODE>72.6819</RA_OF_ASC_NODE><ARG_OF_PERICENTER>88.8641</ARG_OF_PERICENTER><MEAN_ANOMALY>271.2701</MEAN_ANOMALY></meanElements><tleParameters><EPHEMERIS_TYPE>0</EPHEMERIS_TYPE><CLASSIFICATION_TYPE>U</CLASSIFICATION_TYPE><NORAD_CAT_ID>45448</NORAD_CAT_ID><ELEMENT_SET_NO>999</ELEMENT_SET_NO><REV_AT_EPOCH>26872</REV_AT_EPOCH><BSTAR>-.15688093E-3</BSTAR><MEAN_MOTION_DOT>-.43E-6</MEAN_MOTION_DOT><MEAN_MOTION_DDOT>0</MEAN_MOTION_DDOT></tleParameters></data></segment></body></omm>

</ndm>
